{
  "type": "FeatureCollection",
  "features": [
    {
      "type": "Feature",
      "properties": {
        "norad_id": 34752,
        "name": "COSMOS 2251 DEB",
        "group": "cosmos-2251-debris",
        "lat": -67.99936904143996,
        "lon": -63.7891599001672,
        "alt_km": 606.4018228747564,
        "timestamp": "2025-12-22T04:03:39.563546+00:00",
        "meta_object_name": "COSMOS 2251 DEB",
        "meta_object_id": "1993-036ZW",
        "meta_epoch": "2025-12-21T09:11:20.743008",
        "meta_mean_motion": 15.00105558,
        "meta_eccentricity": 0.00475006,
        "meta_inclination": 74.0131,
        "meta_ra_of_asc_node": 343.0108,
        "meta_arg_of_pericenter": 108.6219,
        "meta_mean_anomaly": 252.0135,
        "meta_ephemeris_type": 0,
        "meta_classification_type": "U",
        "meta_norad_cat_id": 34752,
        "meta_element_set_no": 999,
        "meta_rev_at_epoch": 89979,
        "meta_bstar": 0.00079721922,
        "meta_mean_motion_dot": 0.00010156,
        "meta_mean_motion_ddot": 0,
        "tle_line1": "1 34752U 93036ZW  25355.38287897  .00010156  00000+0  79722-3 0  9996",
        "tle_line2": "2 34752  74.0131 343.0108 0047500 108.6219 252.0135 15.00105558899791"
      },
      "geometry": {
        "type": "Point",
        "coordinates": [
          -63.7891599001672,
          -67.99936904143996
        ]
      }
    },
    {
      "type": "Feature",
      "properties": {
        "norad_id": 34754,
        "name": "COSMOS 2251 DEB",
        "group": "cosmos-2251-debris",
        "lat": 38.18902940232337,
        "lon": -136.82088119760544,
        "alt_km": 748.32189359321,
        "timestamp": "2025-12-22T04:03:39.563556+00:00",
        "meta_object_name": "COSMOS 2251 DEB",
        "meta_object_id": "1993-036ZY",
        "meta_epoch": "2025-12-21T18:25:45.479136",
        "meta_mean_motion": 14.40493214,
        "meta_eccentricity": 0.0029905,
        "meta_inclination": 74.0293,
        "meta_ra_of_asc_node": 210.9026,
        "meta_arg_of_pericenter": 325.3259,
        "meta_mean_anomaly": 154.1314,
        "meta_ephemeris_type": 0,
        "meta_classification_type": "U",
        "meta_norad_cat_id": 34754,
        "meta_element_set_no": 999,
        "meta_rev_at_epoch": 88263,
        "meta_bstar": 0.00015749,
        "meta_mean_motion_dot": 4.77e-06,
        "meta_mean_motion_ddot": 0,
        "tle_line1": "1 34754U 93036ZY  25355.76788749  .00000477  00000+0  15749-3 0  9996",
        "tle_line2": "2 34754  74.0293 210.9026 0029905 325.3259 154.1314 14.40493214882632"
      },
      "geometry": {
        "type": "Point",
        "coordinates": [
          -136.82088119760544,
          38.18902940232337
        ]
      }
    },
    {
      "type": "Feature",
      "properties": {
        "norad_id": 34755,
        "name": "COSMOS 2251 DEB",
        "group": "cosmos-2251-debris",
        "lat": -17.437426434692377,
        "lon": -90.32653094223672,
        "alt_km": 867.9874952115733,
        "timestamp": "2025-12-22T04:03:39.563566+00:00",
        "meta_object_name": "COSMOS 2251 DEB",
        "meta_object_id": "1993-036ZZ",
        "meta_epoch": "2025-12-20T18:30:29.240064",
        "meta_mean_motion": 13.50572591,
        "meta_eccentricity": 0.04081275,
        "meta_inclination": 73.9255,
        "meta_ra_of_asc_node": 277.1155,
        "meta_arg_of_pericenter": 295.5233,
        "meta_mean_anomaly": 88.1239,
        "meta_ephemeris_type": 0,
        "meta_classification_type": "U",
        "meta_norad_cat_id": 34755,
        "meta_element_set_no": 999,
        "meta_rev_at_epoch": 82632,
        "meta_bstar": 0.00057435404,
        "meta_mean_motion_dot": 5.95e-06,
        "meta_mean_motion_ddot": 0,
        "tle_line1": "1 34755U 93036ZZ  25354.77117176  .00000595  00000+0  57435-3 0  9996",
        "tle_line2": "2 34755  73.9255 277.1155 0408127 295.5233  88.1239 13.50572591826326"
      },
      "geometry": {
        "type": "Point",
        "coordinates": [
          -90.32653094223672,
          -17.437426434692377
        ]
      }
    },
    {
      "type": "Feature",
      "properties": {
        "norad_id": 34756,
        "name": "COSMOS 2251 DEB",
        "group": "cosmos-2251-debris",
        "lat": 73.64049478582395,
        "lon": -168.88208648941205,
        "alt_km": 1163.6213719447314,
        "timestamp": "2025-12-22T04:03:39.563576+00:00",
        "meta_object_name": "COSMOS 2251 DEB",
        "meta_object_id": "1993-036AAA",
        "meta_epoch": "2025-12-21T15:19:03.173952",
        "meta_mean_motion": 13.67263972,
        "meta_eccentricity": 0.0345673,
        "meta_inclination": 74.0032,
        "meta_ra_of_asc_node": 89.7358,
        "meta_arg_of_pericenter": 323.6338,
        "meta_mean_anomaly": 34.1725,
        "meta_ephemeris_type": 0,
        "meta_classification_type": "U",
        "meta_norad_cat_id": 34756,
        "meta_element_set_no": 999,
        "meta_rev_at_epoch": 83543,
        "meta_bstar": 0.00089544,
        "meta_mean_motion_dot": 1.113e-05,
        "meta_mean_motion_ddot": 0,
        "tle_line1": "1 34756U 93036AAA 25355.63823118  .00001113  00000+0  89544-3 0  9996",
        "tle_line2": "2 34756  74.0032  89.7358 0345673 323.6338  34.1725 13.67263972835430"
      },
      "geometry": {
        "type": "Point",
        "coordinates": [
          -168.88208648941205,
          73.64049478582395
        ]
      }
    },
    {
      "type": "Feature",
      "properties": {
        "norad_id": 34758,
        "name": "COSMOS 2251 DEB",
        "group": "cosmos-2251-debris",
        "lat": -64.65013362542761,
        "lon": 141.28677049658594,
        "alt_km": 1306.3653734608843,
        "timestamp": "2025-12-22T04:03:39.563586+00:00",
        "meta_object_name": "COSMOS 2251 DEB",
        "meta_object_id": "1993-036AAC",
        "meta_epoch": "2025-12-21T02:05:27.269088",
        "meta_mean_motion": 13.58097876,
        "meta_eccentricity": 0.03820265,
        "meta_inclination": 74.1076,
        "meta_ra_of_asc_node": 286.0629,
        "meta_arg_of_pericenter": 47.8221,
        "meta_mean_anomaly": 315.467,
        "meta_ephemeris_type": 0,
        "meta_classification_type": "U",
        "meta_norad_cat_id": 34758,
        "meta_element_set_no": 999,
        "meta_rev_at_epoch": 83023,
        "meta_bstar": 0.0013759148,
        "meta_mean_motion_dot": 1.585e-05,
        "meta_mean_motion_ddot": 0,
        "tle_line1": "1 34758U 93036AAC 25355.08712117  .00001585  00000+0  13759-2 0  9990",
        "tle_line2": "2 34758  74.1076 286.0629 0382026  47.8221 315.4670 13.58097876830238"
      },
      "geometry": {
        "type": "Point",
        "coordinates": [
          141.28677049658594,
          -64.65013362542761
        ]
      }
    },
    {
      "type": "Feature",
      "properties": {
        "norad_id": 34760,
        "name": "COSMOS 2251 DEB",
        "group": "cosmos-2251-debris",
        "lat": 63.77774891520086,
        "lon": -39.00937646085494,
        "alt_km": 823.6098213030918,
        "timestamp": "2025-12-22T04:03:39.563596+00:00",
        "meta_object_name": "COSMOS 2251 DEB",
        "meta_object_id": "1993-036AAE",
        "meta_epoch": "2025-12-21T02:27:21.793248",
        "meta_mean_motion": 14.19589207,
        "meta_eccentricity": 0.00971621,
        "meta_inclination": 74.0634,
        "meta_ra_of_asc_node": 287.4354,
        "meta_arg_of_pericenter": 337.728,
        "meta_mean_anomaly": 39.9901,
        "meta_ephemeris_type": 0,
        "meta_classification_type": "U",
        "meta_norad_cat_id": 34760,
        "meta_element_set_no": 999,
        "meta_rev_at_epoch": 86807,
        "meta_bstar": 0.00035110711,
        "meta_mean_motion_dot": 7.51e-06,
        "meta_mean_motion_ddot": 0,
        "tle_line1": "1 34760U 93036AAE 25355.10233557  .00000751  00000+0  35111-3 0  9993",
        "tle_line2": "2 34760  74.0634 287.4354 0097162 337.7280  39.9901 14.19589207868070"
      },
      "geometry": {
        "type": "Point",
        "coordinates": [
          -39.00937646085494,
          63.77774891520086
        ]
      }
    },
    {
      "type": "Feature",
      "properties": {
        "norad_id": 34761,
        "name": "COSMOS 2251 DEB",
        "group": "cosmos-2251-debris",
        "lat": -67.80184499609962,
        "lon": -150.010802227258,
        "alt_km": 785.8525304308669,
        "timestamp": "2025-12-22T04:03:39.563606+00:00",
        "meta_object_name": "COSMOS 2251 DEB",
        "meta_object_id": "1993-036AAF",
        "meta_epoch": "2025-12-21T16:51:48.477024",
        "meta_mean_motion": 14.38078781,
        "meta_eccentricity": 0.0036891,
        "meta_inclination": 74.0285,
        "meta_ra_of_asc_node": 346.2732,
        "meta_arg_of_pericenter": 17.8484,
        "meta_mean_anomaly": 342.3956,
        "meta_ephemeris_type": 0,
        "meta_classification_type": "U",
        "meta_norad_cat_id": 34761,
        "meta_element_set_no": 999,
        "meta_rev_at_epoch": 87778,
        "meta_bstar": 0.00050258,
        "meta_mean_motion_dot": 1.509e-05,
        "meta_mean_motion_ddot": 0,
        "tle_line1": "1 34761U 93036AAF 25355.70264441  .00001509  00000+0  50258-3 0  9997",
        "tle_line2": "2 34761  74.0285 346.2732 0036891  17.8484 342.3956 14.38078781877781"
      },
      "geometry": {
        "type": "Point",
        "coordinates": [
          -150.010802227258,
          -67.80184499609962
        ]
      }
    }
  ]
}